NORAD_CAT_ID,OBJECT_NAME,OBJECT_TYPE,EPOCH,MEAN_MOTION,ECCENTRICITY,INCLINATION,RA_OF_ASC_NODE,ARG_OF_PERICENTER,MEAN_ANOMALY,BSTAR,MEAN_MOTION_DOT,MEAN_MOTION_DDOT,TLE_LINE0,TLE_LINE1,TLE_LINE2,SEMIMAJOR_AXIS,PERIOD,APOGEE,PERIGEE,DECAYED
52638.0,STARLINK-3941,PAYLOAD,2022-12-31 12:45:29,15.08854432,0.0002701,53.2164,95.2428,39.0443,321.0744,0.00038195,5.798e-05,0.0,0 STARLINK-3941,1 52638U 22052AS  22365.53159720  .00005798  00000-0  38195-3 0  9993,2 52638  53.2164  95.2428 0002701  39.0443 321.0744 15.08854432 36055,6917.8359999999975,95.437,541.57,537.8330000000002,0.0
52638.0,STARLINK-3941,PAYLOAD,2023-01-01 12:36:20,15.08815908,0.0002210999999999,53.2177,90.7819,26.9233,333.1873,-0.00021623,-3.726e-05,0.0,0 STARLINK-3941,1 52638U 22052AS  23001.52523339 -.00003726  00000-0 -21623-3 0  9990,2 52638  53.2177  90.7819 0002211  26.9233 333.1873 15.08815908 35771,6917.954000000002,95.439,541.349,538.289,0.0
52638.0,STARLINK-3941,PAYLOAD,2023-01-01 14:11:43,15.08819242,0.0002308,53.2172,90.4825,32.8523,327.2612,-0.0002225,-3.826e-05,0.0,0 STARLINK-3941,1 52638U 22052AS  23001.59147194 -.00003826  00000-0 -22250-3 0  9996,2 52638  53.2172  90.4825 0002308  32.8523 327.2612 15.08819242 36215,6917.944,95.439,541.406,538.212,0.0
52638.0,STARLINK-3941,PAYLOAD,2023-01-01 15:47:06,15.0881721,0.0002262,53.217,90.1866,29.7658,330.3462,-0.00020516,-3.55e-05,0.0,0 STARLINK-3941,1 52638U 22052AS  23001.65771354 -.00003550  00000-0 -20516-3 0  9991,2 52638  53.2170  90.1866 0002262  29.7658 330.3462 15.08817210 36220,6917.95,95.439,541.38,538.25,0.0
52638.0,STARLINK-3941,PAYLOAD,2023-01-02 12:27:06,15.08840891,0.0002343999999999,53.2168,86.3212,30.5117,329.6011,-0.00014924,-2.663e-05,0.0,0 STARLINK-3941,1 52638U 22052AS  23002.51882104 -.00002663  00000-0 -14924-3 0  9993,2 52638  53.2168  86.3212 0002344  30.5117 329.6011 15.08840891 35928,6917.878000000002,95.437,541.364,538.121,0.0
52638.0,STARLINK-3941,PAYLOAD,2023-01-02 21:59:24,15.08845762,0.0002368,53.2171,84.5367,32.3327,327.781,-8.8596e-05,-1.698e-05,0.0,0 STARLINK-3941,1 52638U 22052AS  23002.91625602 -.00001698  00000-0 -88596-4 0  9999,2 52638  53.2171  84.5367 0002368  32.3327 327.7810 15.08845762 36415,6917.863,95.437,541.366,538.09,0.0
52638.0,STARLINK-3941,PAYLOAD,2023-01-03 12:17:53,15.08833873,0.0002398,53.2164,81.8608,30.2361,329.8769,0.00021908,3.2e-05,0.0,0 STARLINK-3941,1 52638U 22052AS  23003.51242724  .00003200  00000-0  21908-3 0  9998,2 52638  53.2164  81.8608 0002398  30.2361 329.8769 15.08833873 36071,6917.899,95.438,541.423,538.105,0.0
52638.0,STARLINK-3941,PAYLOAD,2023-01-04 10:33:17,15.08844871,0.0002615,53.217,77.7001,23.1276,336.9833,0.00033575,5.06e-05,0.0,0 STARLINK-3941,1 52638U 22052AS  23004.43978877  .00005060  00000-0  33575-3 0  9994,2 52638  53.2170  77.7001 0002615  23.1276 336.9833 15.08844871 36641,6917.866,95.437,541.54,537.9209999999998,0.0
52638.0,STARLINK-3941,PAYLOAD,2023-01-04 12:08:40,15.0885043,0.0002478,53.2178,77.4035,31.6752,328.4389,0.00038259,5.808e-05,0.0,0 STARLINK-3941,1 52638U 22052AS  23004.50602627  .00005808  00000-0  38259-3 0  9993,2 52638  53.2178  77.4035 0002478  31.6752 328.4389 15.08850430 36227,6917.849,95.437,541.428,537.999,0.0
52638.0,STARLINK-3941,PAYLOAD,2023-01-04 21:40:59,15.08843158,0.0002331999999999,53.2174,75.6173,35.6002,324.5146,0.00016097,2.275e-05,0.0,0 STARLINK-3941,1 52638U 22052AS  23004.90346853  .00002275  00000-0  16097-3 0  9994,2 52638  53.2174  75.6173 0002332  35.6002 324.5146 15.08843158 36718,6917.871,95.437,541.349,538.122,0.0
52638.0,STARLINK-3941,PAYLOAD,2023-01-05 04:02:32,15.08836174,0.000287,53.2171,74.4275,47.9906,312.133,5.9897e-05,6.65e-06,0.0,0 STARLINK-3941,1 52638U 22052AS  23005.16843473  .00000665  00000-0  59897-4 0  9990,2 52638  53.2171  74.4275 0002870  47.9906 312.1330 15.08836174 36326,6917.892,95.438,541.743,537.7719999999998,0.0
52638.0,STARLINK-3941,PAYLOAD,2023-01-05 05:37:56,15.08825817,0.0002309,53.2168,74.1306,38.1183,321.9972,-0.00015895,-2.816e-05,0.0,0 STARLINK-3941,1 52638U 22052AS  23005.23467621 -.00002816  00000-0 -15895-3 0  9996,2 52638  53.2168  74.1306 0002309  38.1183 321.9972 15.08825817 36333,6917.924,95.438,541.386,538.191,0.0
52638.0,STARLINK-3941,PAYLOAD,2023-01-05 13:34:51,15.08836728,0.0002265,53.2166,72.6433,31.4818,328.6309,7.4995e-05,9.05e-06,0.0,0 STARLINK-3941,1 52638U 22052AS  23005.56587406  .00000905  00000-0  74995-4 0  9998,2 52638  53.2166  72.6433 0002265  31.4818 328.6309 15.08836728 36811,6917.89,95.438,541.322,538.188,0.0
52638.0,STARLINK-3941,PAYLOAD,2023-01-06 13:25:38,15.08854569,0.0002523,53.2139,68.1822,40.949,319.1692,0.00054955,8.472e-05,0.0,0 STARLINK-3941,1 52638U 22052AS  23006.55947227  .00008472  00000-0  54955-3 0  9999,2 52638  53.2139  68.1822 0002523  40.9490 319.1692 15.08854569 36533,6917.835999999998,95.437,541.446,537.955,0.0
52638.0,STARLINK-3941,PAYLOAD,2023-01-07 03:44:07,15.08831514,0.0001813,53.2163,65.5068,35.5036,324.6077,-0.00011601,-2.134e-05,0.0,0 STARLINK-3941,1 52638U 22052AS  23007.15564081 -.00002134  00000-0 -11601-3 0  9991,2 52638  53.2163  65.5068 0001813  35.5036 324.6077 15.08831514 36623,6917.906,95.438,541.026,538.5169999999998,0.0
52638.0,STARLINK-3941,PAYLOAD,2023-01-07 21:13:22,15.08838857,0.000247,53.2143,62.237,41.2323,318.8856,0.00028702,4.283e-05,0.0,0 STARLINK-3941,1 52638U 22052AS  23007.88428377  .00004283  00000-0  28702-3 0  9993,2 52638  53.2143  62.2370 0002470  41.2323 318.8856 15.08838857 37161,6917.884,95.438,541.4580000000002,538.04,0.0
52638.0,STARLINK-3941,PAYLOAD,2023-01-08 03:34:54,15.08841834,0.0002421,53.2144,61.047,44.0905,316.028,0.00027629,4.112e-05,0.0,0 STARLINK-3941,1 52638U 22052AS  23008.14924382  .00004112  00000-0  27629-3 0  9998,2 52638  53.2144  61.0470 0002421  44.0905 316.0280 15.08841834 36779,6917.875,95.437,541.415,538.065,0.0
52638.0,STARLINK-3941,PAYLOAD,2023-01-08 13:07:13,15.0885676,0.0002197,53.2136,59.2594,55.5072,304.6127,0.00061984,9.595e-05,0.0,0 STARLINK-3941,1 52638U 22052AS  23008.54667833  .00009595  00000-0  61984-3 0  9999,2 52638  53.2136  59.2594 0002197  55.5072 304.6127 15.08856760 37260,6917.8290000000015,95.436,541.214,538.174,0.0
52638.0,STARLINK-3941,PAYLOAD,2023-01-09 09:47:13,15.08849733,0.0002239,53.2127,55.3922,60.7063,299.4152,0.00018776,2.702e-05,0.0,0 STARLINK-3941,1 52638U 22052AS  23009.40779676  .00002702  00000-0  18776-3 0  9998,2 52638  53.2127  55.3922 0002239  60.7063 299.4152 15.08849733 36964,6917.851,95.437,541.265,538.1669999999998,0.0
52638.0,STARLINK-3941,PAYLOAD,2023-01-09 12:57:59,15.08846662,0.0002082,53.2115,54.7974,57.1853,302.934,0.00013598,1.877e-05,0.0,0 STARLINK-3941,1 52638U 22052AS  23009.54027697  .00001877  00000-0  13598-3 0  9991,2 52638  53.2115  54.7974 0002082  57.1853 302.9340 15.08846662 37412,6917.86,95.437,541.165,538.285,0.0
52638.0,STARLINK-3941,PAYLOAD,2023-01-10 01:41:05,15.08836021,0.0002259,53.2119,52.4191,63.9197,296.2027,-8.5872e-06,-4.25e-06,0.0,0 STARLINK-3941,1 52638U 22052AS  23010.07020116 -.00000425  00000-0 -85872-5 0  9996,2 52638  53.2119  52.4191 0002259  63.9197 296.2027 15.08836021 37060,6917.893,95.438,541.32,538.195,0.0
52638.0,STARLINK-3941,PAYLOAD,2023-01-10 09:38:00,15.08845377,0.0001996,53.2117,50.9322,59.5245,300.5944,3.6445e-05,2.92e-06,0.0,0 STARLINK-3941,1 52638U 22052AS  23010.40139696  .00000292  00000-0  36445-4 0  9998,2 52638  53.2117  50.9322 0001996  59.5245 300.5944 15.08845377 37116,6917.864000000001,95.437,541.11,538.3480000000002,0.0
52638.0,STARLINK-3941,PAYLOAD,2023-01-10 22:21:06,15.08837433,0.0002028,53.2145,48.556,70.0389,290.0822,1.7967999999999998e-05,-2e-08,0.0,0 STARLINK-3941,1 52638U 22052AS  23010.93132079 -.00000002  00000-0  17968-4 0  9993,2 52638  53.2145  48.5560 0002028  70.0389 290.0822 15.08837433 37626,6917.888000000001,95.438,541.156,538.35,0.0
52638.0,STARLINK-3941,PAYLOAD,2023-01-10 23:56:29,15.08835394,0.0002004,53.2146,48.2584,69.5014,290.6193,-1.5532e-05,-5.35e-06,0.0,0 STARLINK-3941,1 52638U 22052AS  23010.99756179 -.00000535  00000-0 -15532-4 0  9999,2 52638  53.2146  48.2584 0002004  69.5014 290.6193 15.08835394 37207,6917.894,95.438,541.146,538.373,0.0
52638.0,STARLINK-3941,PAYLOAD,2023-01-11 09:28:47,15.08844798,0.0002097,53.2145,46.4739,74.4971,285.6253,0.0002293,3.363e-05,0.0,0 STARLINK-3941,1 52638U 22052AS  23011.39499738  .00003363  00000-0  22930-3 0  9998,2 52638  53.2145  46.4739 0002097  74.4971 285.6253 15.08844798 37262,6917.866,95.437,541.181,538.28,0.0
52638.0,STARLINK-3941,PAYLOAD,2023-01-11 20:36:29,15.08838648,0.0001999,53.2144,44.392,75.1333,284.988,9.6331e-05,1.245e-05,0.0,0 STARLINK-3941,1 52638U 22052AS  23011.85868051  .00001245  00000-0  96331-4 0  9991,2 52638  53.2144  44.3920 0001999  75.1333 284.9880 15.08838648 37760,6917.885,95.438,541.132,538.367,0.0
52638.0,STARLINK-3941,PAYLOAD,2023-01-12 01:22:39,15.08831902,0.000175,53.2144,43.4994,72.5303,287.588,-3.4518000000000004e-05,-8.37e-06,0.0,0 STARLINK-3941,1 52638U 22052AS  23012.05740415 -.00000837  00000-0 -34518-4 0  9994,2 52638  53.2144  43.4994 0001750  72.5303 287.5880 15.08831902 37365,6917.905,95.438,540.981,538.56,0.0
52638.0,STARLINK-3941,PAYLOAD,2023-01-12 18:51:54,15.08840773,0.0001724,53.2154,40.2277,77.222,282.8965,1.732e-05,-1.2e-07,0.0,0 STARLINK-3941,1 52638U 22052AS  23012.78604252 -.00000012  00000-0  17320-4 0  9998,2 52638  53.2154  40.2277 0001724  77.2220 282.8965 15.08840773 37476,6917.8780000000015,95.438,540.936,538.55,0.0
52638.0,STARLINK-3941,PAYLOAD,2023-01-12 23:38:04,15.08830914,0.0001786,53.2152,39.3357,79.2795,280.8399,6.0055e-05,6.68e-06,0.0,0 STARLINK-3941,1 52638U 22052AS  23012.98476909  .00000668  00000-0  60055-4 0  9995,2 52638  53.2152  39.3357 0001786  79.2795 280.8399 15.08830914 37508,6917.908,95.438,541.009,538.538,0.0
